CTC2_L_00007016-03
1 32583U 22627TB  26037.47790509  .00000000  00000+0  00000-0 0  9998
2 32583  45.0000 180.0000 0000000   0.0000   0.0000 15.80155563    11
CTC2_L_00007016-04
1 32584U 22009TY  26037.47790509  .00000000  00000+0  00000-0 0  9993
2 32584  45.0000 180.0000 0000000   0.0000  90.0000 15.80155563    11
CTC2_L_00007017-01
1 32585U 24395CL  26037.47790509  .00000000  00000+0  00000-0 0  9994
2 32585  45.0000 192.0000 0000000   0.0000 192.0000 15.80155563    18
CTC2_L_00007017-02
1 32586U 23152JE  26037.47790509  .00000000  00000+0  00000-0 0  9995
2 32586  45.0000 192.0000 0000000   0.0000 282.0000 15.80155563    19
CTC2_L_00007017-03
1 32587U 22487XD  26037.47790509  .00000000  00000+0  00000-0 0  9996
2 32587  45.0000 192.0000 0000000   0.0000  12.0000 15.80155563    11
CTC2_L_00007017-04
1 32588U 23996PW  26037.47790509  .00000000  00000+0  00000-0 0  9993
2 32588  45.0000 192.0000 0000000   0.0000 102.0000 15.80155563    12
CTC2_L_00007018-01
1 32589U 25636CQ  26037.47790509  .00000000  00000+0  00000-0 0  9997
2 32589  45.0000 204.0000 0000000   0.0000 204.0000 15.80155563    10
CTC2_L_00007018-02
1 32590U 24646II  26037.47790509  .00000000  00000+0  00000-0 0  9999
2 32590  45.0000 204.0000 0000000   0.0000 294.0000 15.80155563    11
CTC2_L_00007018-03
1 32591U 23362EQ  26037.47790509  .00000000  00000+0  00000-0 0  9994
2 32591  45.0000 204.0000 0000000   0.0000  24.0000 15.80155563    13
CTC2_L_00007018-04
1 32592U 24088JE  26037.47790509  .00000000  00000+0  00000-0 0  9991
2 32592  45.0000 204.0000 0000000   0.0000 114.0000 15.80155563    14
CTC2_L_00007019-01
1 32593U 26924MD  26037.47790509  .00000000  00000+0  00000-0 0  9993
2 32593  45.0000 216.0000 0000000   0.0000 216.0000 15.80155563    11
CTC2_L_00007019-02
1 32594U 23277JP  26037.47790509  .00000000  00000+0  00000-0 0  9992
2 32594  45.0000 216.0000 0000000   0.0000 306.0000 15.80155563    12
CTC2_L_00007019-03
1 32595U 26905XH  26037.47790509  .00000000  00000+0  00000-0 0  9994
2 32595  45.0000 216.0000 0000000   0.0000  36.0000 15.80155563    13
CTC2_L_00007019-04
1 32596U 25855DI  26037.47790509  .00000000  00000+0  00000-0 0  9998
2 32596  45.0000 216.0000 0000000   0.0000 126.0000 15.80155563    14
CTC2_L_00007020-01
1 32597U 24754HQ  26037.47790509  .00000000  00000+0  00000-0 0  9996
2 32597  45.0000 228.0000 0000000   0.0000 228.0000 15.80155563    11
CTC2_L_00007020-02
1 32598U 26817QK  26037.47790509  .00000000  00000+0  00000-0 0  9999
2 32598  45.0000 228.0000 0000000   0.0000 318.0000 15.80155563    12
CTC2_L_00007020-03
1 32599U 22483OH  26037.47790509  .00000000  00000+0  00000-0 0  9995
2 32599  45.0000 228.0000 0000000   0.0000  48.0000 15.80155563    13
CTC2_L_00007020-04
1 32600U 24396HW  26037.47790509  .00000000  00000+0  00000-0 0  9993
2 32600  45.0000 228.0000 0000000   0.0000 138.0000 15.80155563    16
CTC2_L_00007021-01
1 32601U 25710NX  26037.47790509  .00000000  00000+0  00000-0 0  9995
2 32601  45.0000 240.0000 0000000   0.0000 240.0000 15.80155563    15
CTC2_L_00007021-02
1 32602U 24285QM  26037.47790509  .00000000  00000+0  00000-0 0  9992
2 32602  45.0000 240.0000 0000000   0.0000 330.0000 15.80155563    16
CTC2_L_00007021-03
1 32603U 22046NK  26037.47790509  .00000000  00000+0  00000-0 0  9996
2 32603  45.0000 240.0000 0000000   0.0000  60.0000 15.80155563    17
CTC2_L_00007021-04
1 32604U 22168DN  26037.47790509  .00000000  00000+0  00000-0 0  9992
2 32604  45.0000 240.0000 0000000   0.0000 150.0000 15.80155563    18
CTC2_L_00007022-01
1 32605U 24749F   26037.47790509  .00000000  00000+0  00000-0 0  9990
2 32605  45.0000 252.0000 0000000   0.0000 252.0000 15.80155563    15
CTC2_L_00007022-02
1 32606U 24516HY  26037.47790509  .00000000  00000+0  00000-0 0  9993
2 32606  45.0000 252.0000 0000000   0.0000 342.0000 15.80155563    16
CTC2_L_00007022-03
1 32607U 24839KS  26037.47790509  .00000000  00000+0  00000-0 0  9992
2 32607  45.0000 252.0000 0000000   0.0000  72.0000 15.80155563    17
CTC2_L_00007022-04
1 32608U 26953JU  26037.47790509  .00000000  00000+0  00000-0 0  9992
2 32608  45.0000 252.0000 0000000   0.0000 162.0000 15.80155563    18
CTC2_L_00007023-01
1 32609U 22695LU  26037.47790509  .00000000  00000+0  00000-0 0  9992
2 32609  45.0000 264.0000 0000000   0.0000 264.0000 15.80155563    15
CTC2_L_00007023-02
1 32610U 26792FJ  26037.47790509  .00000000  00000+0  00000-0 0  9996
2 32610  45.0000 264.0000 0000000   0.0000 354.0000 15.80155563    17
CTC2_L_00007023-03
1 32611U 22240QA  26037.47790509  .00000000  00000+0  00000-0 0  9991
2 32611  45.0000 264.0000 0000000   0.0000  84.0000 15.80155563    18
CTC2_L_00007023-04
1 32612U 26065II  26037.47790509  .00000000  00000+0  00000-0 0  9991
2 32612  45.0000 264.0000 0000000   0.0000 174.0000 15.80155563    19
CTC2_L_00007024-01
1 32613U 24799YH  26037.47790509  .00000000  00000+0  00000-0 0  9994
2 32613  45.0000 276.0000 0000000   0.0000 276.0000 15.80155563    16
CTC2_L_00007024-02
1 32614U 25089OZ  26037.47790509  .00000000  00000+0  00000-0 0  9998
2 32614  45.0000 276.0000 0000000   0.0000   6.0000 15.80155563    18
CTC2_L_00007024-03
1 32615U 24088UM  26037.47790509  .00000000  00000+0  00000-0 0  9997
2 32615  45.0000 276.0000 0000000   0.0000  96.0000 15.80155563    18
CTC2_L_00007024-04
1 32616U 23915FH  26037.47790509  .00000000  00000+0  00000-0 0  9996
2 32616  45.0000 276.0000 0000000   0.0000 186.0000 15.80155563    19
CTC2_L_00007025-01
1 32617U 25615NC  26037.47790509  .00000000  00000+0  00000-0 0  9996
2 32617  45.0000 288.0000 0000000   0.0000 288.0000 15.80155563    16
CTC2_L_00007025-02
1 32618U 25377QV  26037.47790509  .00000000  00000+0  00000-0 0  9992
2 32618  45.0000 288.0000 0000000   0.0000  18.0000 15.80155563    18
CTC2_L_00007025-03
1 32619U 25095UZ  26037.47790509  .00000000  00000+0  00000-0 0  9990
2 32619  45.0000 288.0000 0000000   0.0000 108.0000 15.80155563    19
CTC2_L_00007025-04
1 32620U 23524IN  26037.47790509  .00000000  00000+0  00000-0 0  9997
2 32620  45.0000 288.0000 0000000   0.0000 198.0000 15.80155563    10
CTC2_L_00007026-01
1 32621U 25834US  26037.47790509  .00000000  00000+0  00000-0 0  9994
2 32621  45.0000 300.0000 0000000   0.0000 300.0000 15.80155563    11
CTC2_L_00007026-02
1 32622U 22147TA  26037.47790509  .00000000  00000+0  00000-0 0  9999
2 32622  45.0000 300.0000 0000000   0.0000  30.0000 15.80155563    12
CTC2_L_00007026-03
1 32623U 26211WB  26037.47790509  .00000000  00000+0  00000-0 0  9996
2 32623  45.0000 300.0000 0000000   0.0000 120.0000 15.80155563    13
CTC2_L_00007026-04
1 32624U 26285XP  26037.47790509  .00000000  00000+0  00000-0 0  9998
2 32624  45.0000 300.0000 0000000   0.0000 210.0000 15.80155563    14
CTC2_L_00007027-01
1 32625U 24213DH  26037.47790509  .00000000  00000+0  00000-0 0  9998
2 32625  45.0000 312.0000 0000000   0.0000 312.0000 15.80155563    11
CTC2_L_00007027-02
1 32626U 25739MS  26037.47790509  .00000000  00000+0  00000-0 0  9993
2 32626  45.0000 312.0000 0000000   0.0000  42.0000 15.80155563    12
CTC2_L_00007027-03
1 32627U 23459OH  26037.47790509  .00000000  00000+0  00000-0 0  9991
2 32627  45.0000 312.0000 0000000   0.0000 132.0000 15.80155563    13
CTC2_L_00007027-04
1 32628U 26557WI  26037.47790509  .00000000  00000+0  00000-0 0  9994
2 32628  45.0000 312.0000 0000000   0.0000 222.0000 15.80155563    14
CTC2_L_00007028-01
1 32629U 26457WG  26037.47790509  .00000000  00000+0  00000-0 0  9994
2 32629  45.0000 324.0000 0000000   0.0000 324.0000 15.80155563    11
CTC2_L_00007028-02
1 32630U 23899RX  26037.47790509  .00000000  00000+0  00000-0 0  9993
2 32630  45.0000 324.0000 0000000   0.0000  54.0000 15.80155563    13
CTC2_L_00007028-03
1 32631U 26568DU  26037.47790509  .00000000  00000+0  00000-0 0  9990
2 32631  45.0000 324.0000 0000000   0.0000 144.0000 15.80155563    14
CTC2_L_00007028-04
1 32632U 22831ZO  26037.47790509  .00000000  00000+0  00000-0 0  9990
2 32632  45.0000 324.0000 0000000   0.0000 234.0000 15.80155563    15
CTC2_L_00007029-01
1 32633U 25308XQ  26037.47790509  .00000000  00000+0  00000-0 0  9993
2 32633  45.0000 336.0000 0000000   0.0000 336.0000 15.80155563    12
CTC2_L_00007029-02
1 32634U 22474NF  26037.47790509  .00000000  00000+0  00000-0 0  9995
2 32634  45.0000 336.0000 0000000   0.0000  66.0000 15.80155563    13
CTC2_L_00007029-03
1 32635U 26432SH  26037.47790509  .00000000  00000+0  00000-0 0  9994
2 32635  45.0000 336.0000 0000000   0.0000 156.0000 15.80155563    14
CTC2_L_00007029-04
1 32636U 25590RC  26037.47790509  .00000000  00000+0  00000-0 0  9999
2 32636  45.0000 336.0000 0000000   0.0000 246.0000 15.80155563    15
CTC2_L_00007030-01
1 32637U 23505WH  26037.47790509  .00000000  00000+0  00000-0 0  9994
2 32637  45.0000 348.0000 0000000   0.0000 348.0000 15.80155563    12
CTC2_L_00007030-02
1 32638U 24543QU  26037.47790509  .00000000  00000+0  00000-0 0  9998
2 32638  45.0000 348.0000 0000000   0.0000  78.0000 15.80155563    13
CTC2_L_00007030-03
1 32639U 23602AM  26037.47790509  .00000000  00000+0  00000-0 0  9994
2 32639  45.0000 348.0000 0000000   0.0000 168.0000 15.80155563    14
CTC2_L_00007030-04
1 32640U 25333WB  26037.47790509  .00000000  00000+0  00000-0 0  9999
2 32640  45.0000 348.0000 0000000   0.0000 258.0000 15.80155563    16
